HST                     
1 20580U 90037B   26192.65455861  .00004090  00000+0  12505-3 0  9992
2 20580  28.4731 273.3159 0002083  72.1261 287.9563 15.31037779792320
POLAR                   
1 23802U 96013A   26191.91433225  .00000231  00000+0  00000+0 0  9996
2 23802  79.8849 226.7704 6494267 208.2622  91.4115  1.29846079145164
SWAS                    
1 25560U 98071A   26192.39864523  .00001672  00000+0  10993-3 0  9993
2 25560  69.8934 165.0756 0008109 234.4386 125.6022 15.09733021500922
CXO                     
1 25867U 99040B   26195.82322719  .00000664  00000+0  00000+0 0  9991
2 25867  56.5906 115.8557 7794602 310.0752   0.3946  0.37803278 17420
XMM-NEWTON              
1 25989U 99066A   26193.28213418  .00000088  00000+0  00000+0 0  9997
2 25989  64.3559 282.6652 4668218  64.4827   0.1151  0.50124873 23131
TERRA                   
1 25994U 99068A   26192.74954399  .00000196  00000+0  48870-4 0  9997
2 25994  97.9443 241.3204 0003272 129.5393 344.3700 14.61122004413199
CLUSTER II-FM7 (SAMBA)  
1 26410U 00041A   26192.68021872  .00012833  00000+0  00000+0 0  9997
2 26410 149.8437  55.3938 9082311 272.8334 359.6328  0.44896530 20420
CLUSTER II-FM8 (TANGO)  
1 26464U 00045B   26190.95011118  .00011224  00000+0  00000+0 0  9993
2 26464 150.0571  56.2797 9085123 273.5523   2.2662  0.44421537 20419
ODIN                    
1 26702U 01007A   26192.65259463  .00258903  00000+0  95764-3 0  9995
2 26702  97.3751 235.3487 0004885 144.8674 215.2921 15.87492259393269
TIMED                   
1 26998U 01055B   26192.69571700  .00000641  00000+0  61702-4 0  9990
2 26998  74.0664 185.6687 0002126 304.6078  55.4906 14.95340132334486
CORIOLIS                
1 27640U 03001A   26192.57804184  .00000050  00000+0  43994-4 0  9997
2 27640  98.7133 199.0907 0014766 138.9959 221.2331 14.19951135217682
SORCE                   
1 27651U 03004A   26191.25065516  .00001905  00000+0  14655-3 0  9995
2 27651  39.9899 130.0780 0018386 221.1032 138.8377 15.03826851275376
MOST                    
1 27843U 03031D   26192.63892966  .00000027  00000+0  32392-4 0  9991
2 27843  98.7051 200.0238 0009852 175.1983 184.9291 14.21327242194184
SCISAT 1                
1 27858U 03036A   26190.78034802  .00000444  00000+0  61285-4 0  9999
2 27858  73.9302 126.4534 0007648 195.5821 164.5121 14.81474956234791
SWIFT                   
1 28485U 04047A   26192.78299309  .00042082  00000+0  31337-3 0  9994
2 28485  20.5531 354.8298 0001598 342.8184  17.2208 15.70879097190730
HINODE (SOLAR-B)        
1 29479U 06041A   26192.64446439  .00000350  00000+0  68436-4 0  9990
2 29479  98.0548 208.4365 0016745 206.0428 153.9936 14.68655499 58466
SHIJIAN-6 02A (SJ-6 02A)
1 29505U 06046A   26192.75979804  .00003750  00000+0  19207-3 0  9992
2 29505  97.6356 234.0127 0004592  71.6673 288.5059 15.17222193 75998
SHIJIAN-6 02B (SJ-6 02B)
1 29506U 06046B   26192.80529912  .00000493  00000+0  42840-4 0  9991
2 29506  97.7156 221.7115 0013850 347.8598  12.2290 15.01433222 74436
FGRST (GLAST)           
1 33053U 08029A   26191.79991929  .00002325  00000+0  79613-4 0  9998
2 33053  25.5830  40.5112 0007704 244.7015 115.2725 15.24060854999446
SDO                     
1 36395U 10005A   26192.24778596 -.00000102  00000+0  00000+0 0  9992
2 36395  34.6998  85.9778 0002020  56.2745 133.8056  1.00277272 60307
CRYOSAT 2               
1 36508U 10013A   26192.75493189  .00000120  00000+0  29026-4 0  9998
2 36508  92.0359 283.2742 0002340  98.2820 261.8653 14.51897553861642
X-SAT                   
1 37389U 11015C   26192.79734447 -.00000133  00000+0 -38831-4 0  9998
2 37389  98.3522 168.6497 0012691 271.9575  88.0152 14.25212552791186
GCOM-W1 (SHIZUKU)       
1 38337U 12025A   26192.75320940  .00000215  00000+0  57858-4 0  9998
2 38337  98.2025 132.9377 0001343  75.8096 343.5470 14.57088317752611
NUSTAR                  
1 38358U 12031A   26192.75002315  .00003731  00000+0  17636-3 0  9996
2 38358   6.0258 209.8729 0006629 120.8808 200.3333 15.09028934  1306
NEOSSAT                 
1 39089U 13009D   26191.97256401  .00000082  00000+0  43034-4 0  9992
2 39089  98.4187  11.4408 0011174 169.3900 190.7524 14.35834638700154
BRITE-AUSTRIA           
1 39091U 13009F   26192.72551399  .00000091  00000+0  45385-4 0  9994
2 39091  98.4006  11.5552 0010564 160.5615 199.5976 14.36551598700572
IRIS                    
1 39197U 13033A   26192.54197716  .00000593  00000+0  74135-4 0  9999
2 39197  97.9320  31.7423 0023138 237.5928 122.3049 14.85932463703998
HISAKI (SPRINT-A)       
1 39253U 13049A   26191.99072928  .00000080  00000+0  17602-4 0  9991
2 39253  29.7202  98.9881 0136947 209.8282 149.4426 13.55546483634658
CASSIOPE                
1 39265U 13055A   26192.74571836  .00022030 -55291-6  23603-3 0  9993
2 39265  80.9129  36.8454 0283711 339.5852  19.4213 15.27265647671417
STSAT-3                 
1 39422U 13066G   26192.81513031  .00001015  00000+0  80157-4 0  9999
2 39422  97.6192 162.3058 0008939 319.6761  40.3801 15.02874585687904
